VIASAT-2                
1 42740U 17029A   22311.91139612 -.00000261  00000+0  00000+0 0  9995
2 42740   0.0201 273.0155 0000291 323.0690  69.2010  1.00271243 19974
EUTELSAT 172B           
1 42741U 17029B   22311.81608123 -.00000002  00000+0  00000+0 0  9996
2 42741   0.0477 152.1101 0000081 188.3634 172.3309  1.00272415 20516
GSAT-19                 
1 42747U 17031A   22313.43660587  .00000132  00000+0  00000+0 0  9990
2 42747   0.1048  94.7075 0004018  73.7203  85.2298  1.00272034 19942
ECHOSTAR 21             
1 42749U 17032A   22312.57297263  .00000067  00000+0  00000+0 0  9991
2 42749   3.6853 311.8713 0002745 277.7925  34.6385  1.00274490 19909
BULGARIASAT-1           
1 42801U 17038A   22312.57131582  .00000017  00000+0  00000+0 0  9992
2 42801   0.0622  95.6233 0002732 137.1923  22.5491  1.00273852 19624
HELLAS-SAT 3            
1 42814U 17040A   22313.43105149  .00000159  00000+0  00000+0 0  9992
2 42814   0.0462  10.8706 0000881 247.8420 344.0547  1.00272135 19625
GSAT-17                 
1 42815U 17040B   22313.63302279 -.00000251  00000+0  00000+0 0  9992
2 42815   0.0669  92.6324 0006715 156.5119 121.0479  1.00272714 19598
INTELSAT 35E (IS-35E)   
1 42818U 17041A   22312.26090869 -.00000233  00000+0  00000+0 0  9993
2 42818   0.0201 280.6642 0001777 299.9414 246.2740  1.00271636 19603
COSMOS 2520             
1 42907U 17046A   22313.62271328  .00000144  00000+0  00000+0 0  9999
2 42907   0.0483  92.5540 0000155 279.7707 305.6642  1.00274075 19196
TDRS 13                 
1 42915U 17047A   22313.40674418 -.00000097  00000+0  00000+0 0  9990
2 42915   4.2812 334.9583 0013966 124.1712  84.4887  1.00272737 19152
QZS-3 (MICHIBIKI-3)     
1 42917U 17048A   22313.60618220 -.00000341  00000+0  00000+0 0  9996
2 42917   0.0546 205.5915 0002260  41.7424 146.7013  1.00271869 19061
AMAZONAS 5              
1 42934U 17053A   22312.84573573 -.00000276  00000+0  00000+0 0  9994
2 42934   0.0320 318.6957 0003962 297.8649  34.9347  1.00270378 18875
ASIASAT 9               
1 42942U 17057A   22313.31267532 -.00000353  00000+0  00000+0 0  9991
2 42942   0.0099  84.3049 0002840 140.4412  58.4019  1.00270230 18741
INTELSAT 37E (IS-37E)   
1 42950U 17059A   22313.49417056 -.00000134  00000+0  00000+0 0  9996
2 42950   0.0185 290.0742 0002972 301.7078 336.7587  1.00270103 18873
BSAT-4A                 
1 42951U 17059B   22313.59858399 -.00000343  00000+0  00000+0 0  9999
2 42951   0.0830  71.7022 0000753 254.0751  48.3274  1.00271883 18605
QZS-4 (MICHIBIKI-4)     
1 42965U 17062A   22311.46378615 -.00000352  00000+0  00000+0 0  9990
2 42965  40.7329   0.2857 0750576 270.5605  81.2627  1.00267409 18600
SES-11 (ECHOSTAR 105)   
1 42967U 17063A   22313.57058061 -.00000082  00000+0  00000+0 0  9997
2 42967   0.0125 290.6263 0002908 306.4639 272.1147  1.00272027 18538
KOREASAT 5A             
1 42984U 17067A   22312.37825399 -.00000354  00000+0  00000+0 0  9995
2 42984   0.0178  80.1557 0002045 155.7889  60.9264  1.00269824 18339
ALCOMSAT 1              
1 43039U 17078A   22313.41993887 -.00000179  00000+0  00000+0 0  9998
2 43039   0.0508 126.9577 0002617 102.3439 305.6806  1.00270261 18094
SBIRS GEO-3 (USA 282)   
1 43162U 18009A   22313.56019958 -.00000288  00000+0  00000+0 0  9995
2 43162   3.2762 320.9643 0002627 267.3238 161.1123  1.00271796 17650
AL YAH 3                
1 43174U 18012A   22313.35599628 -.00000148  00000+0  00000+0 0  9991
2 43174   0.1635  93.6753 0002711 154.3674 268.5383  1.00272618 17651
SES-14                  
1 43175U 18012B   22311.29910294 -.00000276  00000+0  00000+0 0  9991
2 43175   0.0167 296.2828 0001138 283.4966 246.9021  1.00272464 17844
GOES 17                 
1 43226U 18022A   22313.52708743  .00000105  00000+0  00000+0 0  9991
2 43226   0.0132 261.7285 0000596 330.8573 228.5298  1.00271207 17234
HISPASAT 30W-6          
1 43228U 18023A   22313.21060522 -.00000209  00000+0  00000+0 0  9992
2 43228   0.0582  57.1325 0002564 185.3092 211.8050  1.00270998 17252
SUPERBIRD-B3            
1 43271U 18033A   22313.61362233 -.00000085  00000+0  00000+0 0  9991
2 43271   0.0392 109.5043 0001200 130.4320 191.7469  1.00271861 16854
HYLAS 4                 
1 43272U 18033B   22313.42549322 -.00000226  00000+0  00000+0 0  9994
2 43272   0.0404 273.0985 0001941 319.2342 295.9434  1.00269716 16882
IRNSS-1I                
1 43286U 18035A   22313.52765350  .00000108  00000+0  00000+0 0  9991
2 43286  29.3956  94.9993 0021413 178.1934  20.4785  1.00275093 16882
USA 283                 
1 43339U 18036A   22311.64007963 -.00000314  00000+0  00000+0 0  9991
2 43339   0.0215 264.2273 0001072   4.3565 142.7883  1.00270979  5532
COSMOS 2526             
1 43432U 18037A   22313.38554519 -.00000338  00000+0  00000+0 0  9999
2 43432   0.0185 121.4989 0000405 253.1315 300.8085  1.00272354 16774
APSTAR 6C               
1 43450U 18041A   22312.67358567 -.00000312  00000+0  00000+0 0  9992
2 43450   0.0069 313.6569 0002620 274.2952 196.3964  1.00269709 16646
BANGABANDHUSAT-1        
1 43463U 18044A   22306.68147583 -.00000371  00000+0  00000+0 0  9992
2 43463   0.0143 266.2278 0002563 311.3708 188.7853  1.00271656 16445
SES-12                  
1 43488U 18049A   22313.38764464 -.00000263  00000+0  00000+0 0  9992
2 43488   0.0418  75.2958 0002614 179.5868  28.2300  1.00270534 16223
FENGYUN 2H              
1 43491U 18050A   22313.62700953 -.00000119  00000+0  00000+0 0  9998
2 43491   1.5130  94.3867 0003464  77.0219 182.1655  1.00270563 16248
BEIDOU IGSO-7           
1 43539U 18057A   22313.54937787 -.00000064  00000+0  00000+0 0  9995
2 43539  55.0893 174.4481 0051391 226.4102 319.8396  1.00266220 15960
TELSTAR 19V             
1 43562U 18059A   22312.30189404 -.00000275  00000+0  00000+0 0  9995
2 43562   0.0191 211.0135 0002712 332.0041 270.1449  1.00270743 15930
TELKOM 4 (MERAH PUTIH)  
1 43587U 18064A   22313.59858387 -.00000337  00000+0  00000+0 0  9992
2 43587   0.0144 282.9433 0001430 318.6737 130.6275  1.00270823 15678
TELSTAR 18V (APSTAR 5C) 
1 43611U 18069A   22313.31581326 -.00000287  00000+0  00000+0 0  9995
2 43611   0.0171 290.4501 0002169 297.5891  72.1095  1.00269760 15434
AZERSPACE 2 (IS-38)     
1 43632U 18074A   22313.43660587  .00000143  00000+0  00000+0 0  9994
2 43632   0.0106 286.1710 0001706 320.0203   4.6858  1.00271743 15255
HORIZONS-3E             
1 43633U 18074B   22310.38072552 -.00000032  00000+0  00000+0 0  9993
2 43633   0.0151  65.2733 0001889 221.3648  64.9917  1.00269546 15113
AEHF-4 (USA 288)        
1 43651U 18079A   22313.45605000 -.00000269  00000+0  00000+0 0  9991
2 43651   2.2881 318.6784 0004173 262.1537 284.4030  1.00268035 15103
BEIDOU-3 G1             
1 43683U 18085A   22312.70535532 -.00000271  00000+0  00000+0 0  9995
2 43683   1.0728 144.9395 0004851  62.3372 234.4553  1.00276682 14845
GSAT-29                 
1 43698U 18089A   22313.52931456  .00000091  00000+0  00000+0 0  9990
2 43698   0.0469 105.5815 0004008 116.6895  72.1049  1.00276112 14596
ES'HAIL 2               
1 43700U 18090A   22313.34563123  .00000151  00000+0  00000+0 0  9995
2 43700   0.0110 287.2197 0001529 325.5249 305.9504  1.00272165 14488
GEO-KOMPSAT-2A          
1 43823U 18100A   22312.90625000 -.00000338  00000+0  00000+0 0  9995
2 43823   0.0398  77.1158 0000693  83.9526 341.5359  1.00271419 14428
GSAT-11                 
1 43824U 18100B   22313.62436608 -.00000071  00000+0  00000+0 0  9994
2 43824   0.0241 272.1816 0003977 223.6690 211.7210  1.00272738 14291
GSAT-7A                 
1 43864U 18105A   22313.62079852  .00000033  00000+0  00000+0 0  9994
2 43864   0.0828  96.5747 0002335 137.3154 101.1897  1.00274652 14267
COSMOS 2533             
1 43867U 18107A   22313.62256653 -.00000032  00000+0  00000+0 0  9995
2 43867   0.0487  81.4704 0000249  13.5682 247.8742  1.00271976 14229
TJS-3                   
1 43874U 18110A   22313.63129991 -.00000210  00000+0  00000+0 0  9990
2 43874   0.0502  55.1756 0002865 235.8207  73.6578  1.00273262 14220
CHINASAT 2D (ZX 2D)     
1 43920U 19001A   22313.60698215 -.00000330  00000+0  00000+0 0  9992
2 43920   0.0067 245.9699 0001024  61.0725  90.2882  1.00271384 40880
HELLAS-SAT 4 & SGS-1    
1 44034U 19007A   22312.15535625  .00000157  00000+0  00000+0 0  9995
2 44034   0.0673 121.0517 0004874  52.3336 328.8920  1.00273963 14159
GSAT-31                 
1 44035U 19007B   22313.21299667  .00000131  00000+0  00000+0 0  9999
2 44035   0.0291 269.6797 0005246 328.5418 294.7364  1.00273577 13780
NUSANTARA SATU          
1 44048U 19009A   22312.25788677 -.00000230  00000+0  00000+0 0  9993
2 44048   0.0190 285.6750 0002189 302.8013  57.8104  1.00269593 13556
CHINASAT 6C (ZX 6C)     
1 44067U 19012A   22312.84771600 -.00000331  00000+0  00000+0 0  9993
2 44067   0.0504 269.4801 0005147 352.6364 221.0677  1.00268516 13534
WGS 10 (USA 291)        
1 44071U 19014A   22313.37194747  .00000053  00000+0  00000+0 0  9990
2 44071   0.0085 291.3676 0000800 344.1242 327.2237  1.00271938 13431
TIANLIAN 2-01           
1 44076U 19017A   22313.62700957 -.00000128  00000+0  00000+0 0  9996
2 44076   0.0552 274.8357 0033624 244.8038 194.8475  1.00269738 13411
ARABSAT-6A              
1 44186U 19021A   22311.48104840  .00000156  00000+0  00000+0 0  9994
2 44186   0.0425 341.7158 0006381 271.2277 357.4377  1.00276038 12940
BEIDOU-3 IGSO-1         
1 44204U 19023A   22312.58036249 -.00000240  00000+0  00000+0 0  9991
2 44204  56.7751  51.4314 0024089 191.1232 133.2950  1.00266196 13151
BEIDOU-2 G8             
1 44231U 19027A   22313.64932926 -.00000240  00000+0  00000+0 0  9990
2 44231   1.2110  79.7719 0006521 127.3253 220.0311  1.00270181 12875
YAMAL 601               
1 44307U 19031A   22311.85327194  .00000123  00000+0  00000+0 0  9994
2 44307   0.0082  97.7775 0002086 120.0550 185.3995  1.00273412 12723
